{"type": "FeatureCollection", "features": [{"type": "Feature", "properties": {"norad_id": 28890, "name": "BEIJING 1", "group": "dmc", "lat": -25.74625030492684, "lon": 133.1649116768873, "alt_km": 694.1247254550681, "timestamp": "2025-12-27T14:26:30.182994+00:00", "meta": {"OBJECT_NAME": "BEIJING 1", "OBJECT_ID": "2005-043A", "EPOCH": "2025-12-27T07:59:47.437152", "MEAN_MOTION": 14.63379351, "ECCENTRICITY": 0.00158626, "INCLINATION": 98.2663, "RA_OF_ASC_NODE": 128.8754, "ARG_OF_PERICENTER": 98.5455, "MEAN_ANOMALY": 261.7545, "EPHEMERIS_TYPE": 0, "CLASSIFICATION_TYPE": "U", "NORAD_CAT_ID": 28890, "ELEMENT_SET_NO": 999, "REV_AT_EPOCH": 7551, "BSTAR": 8.5179065e-05, "MEAN_MOTION_DOT": 3.92e-06, "MEAN_MOTION_DDOT": 0}, "tle": {"line1": "1 28890U 05043A   25361.33318793  .00000392  00000+0  85179-4 0  9990", "line2": "2 28890  98.2663 128.8754 0015862  98.5455 261.7545 14.63379351 75516"}}, "geometry": {"type": "Point", "coordinates": [133.1649116768873, -25.74625030492684]}}, {"type": "Feature", "properties": {"norad_id": 33320, "name": "HUANJING 1A (HJ-1A)", "group": "dmc", "lat": -8.25936754155956, "lon": -9.600658276670524, "alt_km": 609.280194325157, "timestamp": "2025-12-27T14:26:30.183017+00:00", "meta": {"OBJECT_NAME": "HUANJING 1A (HJ-1A)", "OBJECT_ID": "2008-041A", "EPOCH": "2025-12-27T06:23:05.294400", "MEAN_MOTION": 14.83441834, "ECCENTRICITY": 0.00189892, "INCLINATION": 97.6555, "RA_OF_ASC_NODE": 348.9588, "ARG_OF_PERICENTER": 347.9237, "MEAN_ANOMALY": 12.152, "EPHEMERIS_TYPE": 0, "CLASSIFICATION_TYPE": "U", "NORAD_CAT_ID": 33320, "ELEMENT_SET_NO": 999, "REV_AT_EPOCH": 93291, "BSTAR": 0.00030022759, "MEAN_MOTION_DOT": 2.422e-05, "MEAN_MOTION_DDOT": 0}, "tle": {"line1": "1 33320U 08041A   25361.26603350  .00002422  00000+0  30023-3 0  9996", "line2": "2 33320  97.6555 348.9588 0018989 347.9237  12.1520 14.83441834932910"}}, "geometry": {"type": "Point", "coordinates": [-9.600658276670524, -8.25936754155956]}}, {"type": "Feature", "properties": {"norad_id": 33321, "name": "HUANJING 1B (HJ-1B)", "group": "dmc", "lat": -2.335103648258416, "lon": 172.62480247733285, "alt_km": 647.2266552470364, "timestamp": "2025-12-27T14:26:30.183031+00:00", "meta": {"OBJECT_NAME": "HUANJING 1B (HJ-1B)", "OBJECT_ID": "2008-041B", "EPOCH": "2025-12-27T07:08:46.819104", "MEAN_MOTION": 14.82862111, "ECCENTRICITY": 0.00376408, "INCLINATION": 97.6413, "RA_OF_ASC_NODE": 352.6479, "ARG_OF_PERICENTER": 29.5678, "MEAN_ANOMALY": 330.7654, "EPHEMERIS_TYPE": 0, "CLASSIFICATION_TYPE": "U", "NORAD_CAT_ID": 33321, "ELEMENT_SET_NO": 999, "REV_AT_EPOCH": 93293, "BSTAR": 0.00023336793, "MEAN_MOTION_DOT": 1.862e-05, "MEAN_MOTION_DDOT": 0}, "tle": {"line1": "1 33321U 08041B   25361.29776411  .00001862  00000+0  23337-3 0  9996", "line2": "2 33321  97.6413 352.6479 0037640  29.5678 330.7654 14.82862111932935"}}, "geometry": {"type": "Point", "coordinates": [172.62480247733285, -2.335103648258416]}}, {"type": "Feature", "properties": {"norad_id": 33446, "name": "YAOGAN-4", "group": "dmc", "lat": 81.4260753412047, "lon": -135.8599602067872, "alt_km": 622.3427379639506, "timestamp": "2025-12-27T14:26:30.183043+00:00", "meta": {"OBJECT_NAME": "YAOGAN-4", "OBJECT_ID": "2008-061A", "EPOCH": "2025-12-27T05:57:11.988288", "MEAN_MOTION": 14.82725658, "ECCENTRICITY": 0.00129687, "INCLINATION": 97.9199, "RA_OF_ASC_NODE": 291.2063, "ARG_OF_PERICENTER": 271.6936, "MEAN_ANOMALY": 88.2792, "EPHEMERIS_TYPE": 0, "CLASSIFICATION_TYPE": "U", "NORAD_CAT_ID": 33446, "ELEMENT_SET_NO": 999, "REV_AT_EPOCH": 92018, "BSTAR": 0.0002107495, "MEAN_MOTION_DOT": 1.65e-05, "MEAN_MOTION_DDOT": 0}, "tle": {"line1": "1 33446U 08061A   25361.24805542  .00001650  00000+0  21075-3 0  9991", "line2": "2 33446  97.9199 291.2063 0012968 271.6936  88.2792 14.82725658920183"}}, "geometry": {"type": "Point", "coordinates": [-135.8599602067872, 81.4260753412047]}}, {"type": "Feature", "properties": {"norad_id": 35681, "name": "DEIMOS-1", "group": "dmc", "lat": 16.952972823340225, "lon": -16.117378300828896, "alt_km": 646.2676535137552, "timestamp": "2025-12-27T14:26:30.183055+00:00", "meta": {"OBJECT_NAME": "DEIMOS-1", "OBJECT_ID": "2009-041A", "EPOCH": "2025-12-27T07:11:37.592160", "MEAN_MOTION": 14.74975988, "ECCENTRICITY": 0.00023938, "INCLINATION": 97.7159, "RA_OF_ASC_NODE": 161.2261, "ARG_OF_PERICENTER": 57.5087, "MEAN_ANOMALY": 302.6354, "EPHEMERIS_TYPE": 0, "CLASSIFICATION_TYPE": "U", "NORAD_CAT_ID": 35681, "ELEMENT_SET_NO": 999, "REV_AT_EPOCH": 88154, "BSTAR": 0.00017626894, "MEAN_MOTION_DOT": 1.138e-05, "MEAN_MOTION_DDOT": 0}, "tle": {"line1": "1 35681U 09041A   25361.29974065  .00001138  00000+0  17627-3 0  9994", "line2": "2 35681  97.7159 161.2261 0002393  57.5087 302.6354 14.74975988881542"}}, "geometry": {"type": "Point", "coordinates": [-16.117378300828896, 16.952972823340225]}}, {"type": "Feature", "properties": {"norad_id": 35683, "name": "UK-DMC 2", "group": "dmc", "lat": -33.74180697097074, "lon": -49.206994900067954, "alt_km": 649.877964451638, "timestamp": "2025-12-27T14:26:30.183066+00:00", "meta": {"OBJECT_NAME": "UK-DMC 2", "OBJECT_ID": "2009-041C", "EPOCH": "2025-12-27T06:57:55.756224", "MEAN_MOTION": 14.7565424, "ECCENTRICITY": 0.00015939, "INCLINATION": 97.8573, "RA_OF_ASC_NODE": 135.783, "ARG_OF_PERICENTER": 92.6689, "MEAN_ANOMALY": 267.4703, "EPHEMERIS_TYPE": 0, "CLASSIFICATION_TYPE": "U", "NORAD_CAT_ID": 35683, "ELEMENT_SET_NO": 999, "REV_AT_EPOCH": 88121, "BSTAR": 0.00022678175, "MEAN_MOTION_DOT": 1.5e-05, "MEAN_MOTION_DDOT": 0}, "tle": {"line1": "1 35683U 09041C   25361.29022866  .00001500  00000+0  22678-3 0  9994", "line2": "2 35683  97.8573 135.7830 0001593  92.6689 267.4703 14.75654240881218"}}, "geometry": {"type": "Point", "coordinates": [-49.206994900067954, -33.74180697097074]}}, {"type": "Feature", "properties": {"norad_id": 40715, "name": "DMC3-FM1", "group": "dmc", "lat": 65.89986321258436, "lon": -149.27629410075286, "alt_km": 608.5161469380346, "timestamp": "2025-12-27T14:26:30.183077+00:00", "meta": {"OBJECT_NAME": "DMC3-FM1", "OBJECT_ID": "2015-032A", "EPOCH": "2025-12-27T06:03:26.614368", "MEAN_MOTION": 14.8546452, "ECCENTRICITY": 0.00040846, "INCLINATION": 97.6678, "RA_OF_ASC_NODE": 227.9156, "ARG_OF_PERICENTER": 259.1112, "MEAN_ANOMALY": 100.9644, "EPHEMERIS_TYPE": 0, "CLASSIFICATION_TYPE": "U", "NORAD_CAT_ID": 40715, "ELEMENT_SET_NO": 999, "REV_AT_EPOCH": 56438, "BSTAR": 0.00011827869, "MEAN_MOTION_DOT": 9.69e-06, "MEAN_MOTION_DDOT": 0}, "tle": {"line1": "1 40715U 15032A   25361.25239137  .00000969  00000+0  11828-3 0  9993", "line2": "2 40715  97.6678 227.9156 0004084 259.1112 100.9644 14.85464520564380"}}, "geometry": {"type": "Point", "coordinates": [-149.27629410075286, 65.89986321258436]}}, {"type": "Feature", "properties": {"norad_id": 40716, "name": "DMC3-FM2", "group": "dmc", "lat": -52.369516448897414, "lon": -120.22128884835055, "alt_km": 616.7225677485712, "timestamp": "2025-12-27T14:26:30.183087+00:00", "meta": {"OBJECT_NAME": "DMC3-FM2", "OBJECT_ID": "2015-032B", "EPOCH": "2025-12-27T06:35:48.543360", "MEAN_MOTION": 14.85469184, "ECCENTRICITY": 0.00045117, "INCLINATION": 97.6737, "RA_OF_ASC_NODE": 229.3916, "ARG_OF_PERICENTER": 267.0302, "MEAN_ANOMALY": 93.0397, "EPHEMERIS_TYPE": 0, "CLASSIFICATION_TYPE": "U", "NORAD_CAT_ID": 40716, "ELEMENT_SET_NO": 999, "REV_AT_EPOCH": 56438, "BSTAR": 0.00017551238, "MEAN_MOTION_DOT": 1.462e-05, "MEAN_MOTION_DDOT": 0}, "tle": {"line1": "1 40716U 15032B   25361.27486740  .00001462  00000+0  17551-3 0  9998", "line2": "2 40716  97.6737 229.3916 0004511 267.0302  93.0397 14.85469184564389"}}, "geometry": {"type": "Point", "coordinates": [-120.22128884835055, -52.369516448897414]}}, {"type": "Feature", "properties": {"norad_id": 40717, "name": "DMC3-FM3", "group": "dmc", "lat": -10.69141921865217, "lon": 49.88998894554079, "alt_km": 615.8680929597176, "timestamp": "2025-12-27T14:26:30.183098+00:00", "meta": {"OBJECT_NAME": "DMC3-FM3", "OBJECT_ID": "2015-032C", "EPOCH": "2025-12-27T07:07:08.278176", "MEAN_MOTION": 14.85450878, "ECCENTRICITY": 0.0003888, "INCLINATION": 97.6792, "RA_OF_ASC_NODE": 231.0554, "ARG_OF_PERICENTER": 268.5672, "MEAN_ANOMALY": 91.5098, "EPHEMERIS_TYPE": 0, "CLASSIFICATION_TYPE": "U", "NORAD_CAT_ID": 40717, "ELEMENT_SET_NO": 999, "REV_AT_EPOCH": 56439, "BSTAR": 5.3588433e-05, "MEAN_MOTION_DOT": 4.1e-06, "MEAN_MOTION_DDOT": 0}, "tle": {"line1": "1 40717U 15032C   25361.29662359  .00000410  00000+0  53588-4 0  9996", "line2": "2 40717  97.6792 231.0554 0003888 268.5672  91.5098 14.85450878564393"}}, "geometry": {"type": "Point", "coordinates": [49.88998894554079, -10.69141921865217]}}]}